[{"OBJECT_NAME":"STARLINK-3721","OBJECT_ID":"2022-029AY","EPOCH":"2026-03-21T19:02:28.328352","MEAN_MOTION":15.08848078,"ECCENTRICITY":0.00022702,"INCLINATION":53.2197,"RA_OF_ASC_NODE":14.7857,"ARG_OF_PERICENTER":87.302,"MEAN_ANOMALY":272.8232,"EPHEMERIS_TYPE":0,"CLASSIFICATION_TYPE":"U","NORAD_CAT_ID":52134,"ELEMENT_SET_NO":999,"REV_AT_EPOCH":22276,"BSTAR":0.00019858154,"MEAN_MOTION_DOT":2.874e-5,"MEAN_MOTION_DDOT":0},{"OBJECT_NAME":"STARLINK-3729","OBJECT_ID":"2022-029AZ","EPOCH":"2026-03-21T02:48:47.598048","MEAN_MOTION":15.08837652,"ECCENTRICITY":0.00012949,"INCLINATION":53.2183,"RA_OF_ASC_NODE":17.8312,"ARG_OF_PERICENTER":87.1006,"MEAN_ANOMALY":273.0134,"EPHEMERIS_TYPE":0,"CLASSIFICATION_TYPE":"U","NORAD_CAT_ID":52135,"ELEMENT_SET_NO":999,"REV_AT_EPOCH":22266,"BSTAR":4.2080517e-5,"MEAN_MOTION_DOT":3.82e-6,"MEAN_MOTION_DDOT":0},{"OBJECT_NAME":"STARLINK-3720","OBJECT_ID":"2022-029BA","EPOCH":"2026-03-21T12:30:19.315296","MEAN_MOTION":15.08841715,"ECCENTRICITY":0.00013999,"INCLINATION":53.2201,"RA_OF_ASC_NODE":16.0076,"ARG_OF_PERICENTER":97.189,"MEAN_ANOMALY":262.9262,"EPHEMERIS_TYPE":0,"CLASSIFICATION_TYPE":"U","NORAD_CAT_ID":52136,"ELEMENT_SET_NO":999,"REV_AT_EPOCH":22272,"BSTAR":7.357753e-5,"MEAN_MOTION_DOT":8.83e-6,"MEAN_MOTION_DDOT":0},{"OBJECT_NAME":"STARLINK-3733","OBJECT_ID":"2022-029BB","EPOCH":"2026-03-21T20:11:20.905152","MEAN_MOTION":15.08840237,"ECCENTRICITY":0.00013892,"INCLINATION":53.2182,"RA_OF_ASC_NODE":14.5681,"ARG_OF_PERICENTER":86.5007,"MEAN_ANOMALY":273.6144,"EPHEMERIS_TYPE":0,"CLASSIFICATION_TYPE":"U","NORAD_CAT_ID":52137,"ELEMENT_SET_NO":999,"REV_AT_EPOCH":22277,"BSTAR":8.2380097e-5,"MEAN_MOTION_DOT":1.023e-5,"MEAN_MOTION_DDOT":0},{"OBJECT_NAME":"STARLINK-3723","OBJECT_ID":"2022-029BC","EPOCH":"2026-03-21T02:52:43.033728","MEAN_MOTION":15.0883538,"ECCENTRICITY":0.00014076,"INCLINATION":53.2187,"RA_OF_ASC_NODE":17.8068,"ARG_OF_PERICENTER":86.0846,"MEAN_ANOMALY":274.0307,"EPHEMERIS_TYPE":0,"CLASSIFICATION_TYPE":"U","NORAD_CAT_ID":52138,"ELEMENT_SET_NO":999,"REV_AT_EPOCH":22266,"BSTAR":3.857002e-5,"MEAN_MOTION_DOT":3.26e-6,"MEAN_MOTION_DDOT":0},{"OBJECT_NAME":"STARLINK-3730","OBJECT_ID":"2022-029BD","EPOCH":"2026-03-21T13:32:35.057760","MEAN_MOTION":15.08847339,"ECCENTRICITY":0.00013945,"INCLINATION":53.2192,"RA_OF_ASC_NODE":25.8135,"ARG_OF_PERICENTER":84.8342,"MEAN_ANOMALY":275.2809,"EPHEMERIS_TYPE":0,"CLASSIFICATION_TYPE":"U","NORAD_CAT_ID":52139,"ELEMENT_SET_NO":999,"REV_AT_EPOCH":22258,"BSTAR":0.0001239796,"MEAN_MOTION_DOT":1.686e-5,"MEAN_MOTION_DDOT":0},{"OBJECT_NAME":"STARLINK-3682","OBJECT_ID":"2022-029BE","EPOCH":"2026-03-21T20:06:02.290464","MEAN_MOTION":15.08853038,"ECCENTRICITY":0.00012609,"INCLINATION":53.2188,"RA_OF_ASC_NODE":14.583,"ARG_OF_PERICENTER":87.7148,"MEAN_ANOMALY":272.3988,"EPHEMERIS_TYPE":0,"CLASSIFICATION_TYPE":"U","NORAD_CAT_ID":52140,"ELEMENT_SET_NO":999,"REV_AT_EPOCH":22277,"BSTAR":7.1499974e-5,"MEAN_MOTION_DOT":8.51e-6,"MEAN_MOTION_DDOT":0},{"OBJECT_NAME":"STARLINK-3761","OBJECT_ID":"2022-041B","EPOCH":"2026-03-21T21:36:09.332064","MEAN_MOTION":15.08835362,"ECCENTRICITY":0.00017163,"INCLINATION":53.2181,"RA_OF_ASC_NODE":54.257,"ARG_OF_PERICENTER":83.0244,"MEAN_ANOMALY":277.0943,"EPHEMERIS_TYPE":0,"CLASSIFICATION_TYPE":"U","NORAD_CAT_ID":52262,"ELEMENT_SET_NO":999,"REV_AT_EPOCH":21620,"BSTAR":2.479087e-5,"MEAN_MOTION_DOT":1.06e-6,"MEAN_MOTION_DDOT":0},{"OBJECT_NAME":"STARLINK-3786","OBJECT_ID":"2022-041C","EPOCH":"2026-03-21T21:41:26.633472","MEAN_MOTION":15.08840049,"ECCENTRICITY":0.00017599,"INCLINATION":53.2182,"RA_OF_ASC_NODE":54.2903,"ARG_OF_PERICENTER":86.3562,"MEAN_ANOMALY":273.7631,"EPHEMERIS_TYPE":0,"CLASSIFICATION_TYPE":"U","NORAD_CAT_ID":52263,"ELEMENT_SET_NO":999,"REV_AT_EPOCH":21620,"BSTAR":2.2521596e-5,"MEAN_MOTION_DOT":7.0e-7,"MEAN_MOTION_DDOT":0},{"OBJECT_NAME":"STARLINK-3795","OBJECT_ID":"2022-041D","EPOCH":"2026-03-21T21:30:50.907456","MEAN_MOTION":15.08837468,"ECCENTRICITY":0.00014006,"INCLINATION":53.2179,"RA_OF_ASC_NODE":54.3216,"ARG_OF_PERICENTER":82.5705,"MEAN_ANOMALY":277.5446,"EPHEMERIS_TYPE":0,"CLASSIFICATION_TYPE":"U","NORAD_CAT_ID":52264,"ELEMENT_SET_NO":999,"REV_AT_EPOCH":21620,"BSTAR":4.7363434e-5,"MEAN_MOTION_DOT":4.66e-6,"MEAN_MOTION_DDOT":0},{"OBJECT_NAME":"STARLINK-3740","OBJECT_ID":"2022-041E","EPOCH":"2026-03-21T05:31:43.147200","MEAN_MOTION":15.08794884,"ECCENTRICITY":0.00017287,"INCLINATION":53.2174,"RA_OF_ASC_NODE":57.3128,"ARG_OF_PERICENTER":89.4712,"MEAN_ANOMALY":270.6478,"EPHEMERIS_TYPE":0,"CLASSIFICATION_TYPE":"U","NORAD_CAT_ID":52265,"ELEMENT_SET_NO":999,"REV_AT_EPOCH":21610,"BSTAR":0.00061429082,"MEAN_MOTION_DOT":9.49e-5,"MEAN_MOTION_DDOT":0},{"OBJECT_NAME":"STARLINK-3739","OBJECT_ID":"2022-041F","EPOCH":"2026-03-21T05:26:23.266752","MEAN_MOTION":15.08825716,"ECCENTRICITY":0.00013208,"INCLINATION":53.2171,"RA_OF_ASC_NODE":57.3284,"ARG_OF_PERICENTER":89.5291,"MEAN_ANOMALY":270.5852,"EPHEMERIS_TYPE":0,"CLASSIFICATION_TYPE":"U","NORAD_CAT_ID":52266,"ELEMENT_SET_NO":999,"REV_AT_EPOCH":21610,"BSTAR":9.0814641e-5,"MEAN_MOTION_DOT":1.157e-5,"MEAN_MOTION_DDOT":0},{"OBJECT_NAME":"STARLINK-3748","OBJECT_ID":"2022-041G","EPOCH":"2026-03-21T22:50:20.400000","MEAN_MOTION":15.08834455,"ECCENTRICITY":0.00015189,"INCLINATION":53.2204,"RA_OF_ASC_NODE":54.0845,"ARG_OF_PERICENTER":98.3978,"MEAN_ANOMALY":261.7186,"EPHEMERIS_TYPE":0,"CLASSIFICATION_TYPE":"U","NORAD_CAT_ID":52267,"ELEMENT_SET_NO":999,"REV_AT_EPOCH":21621,"BSTAR":4.7396317e-5,"MEAN_MOTION_DOT":4.66e-6,"MEAN_MOTION_DDOT":0},{"OBJECT_NAME":"STARLINK-3746","OBJECT_ID":"2022-041H","EPOCH":"2026-03-21T22:23:49.246368","MEAN_MOTION":15.08843421,"ECCENTRICITY":0.00015157,"INCLINATION":53.2177,"RA_OF_ASC_NODE":54.0774,"ARG_OF_PERICENTER":90.2934,"MEAN_ANOMALY":269.8232,"EPHEMERIS_TYPE":0,"CLASSIFICATION_TYPE":"U","NORAD_CAT_ID":52268,"ELEMENT_SET_NO":999,"REV_AT_EPOCH":21621,"BSTAR":4.944373e-6,"MEAN_MOTION_DOT":-2.09e-6,"MEAN_MOTION_DDOT":0},{"OBJECT_NAME":"STARLINK-3791","OBJECT_ID":"2022-041J","EPOCH":"2026-03-21T22:45:01.451808","MEAN_MOTION":15.08844593,"ECCENTRICITY":0.00013752,"INCLINATION":53.2185,"RA_OF_ASC_NODE":54.0901,"ARG_OF_PERICENTER":87.6332,"MEAN_ANOMALY":272.4817,"EPHEMERIS_TYPE":0,"CLASSIFICATION_TYPE":"U","NORAD_CAT_ID":52269,"ELEMENT_SET_NO":999,"REV_AT_EPOCH":21621,"BSTAR":0.00015330719,"MEAN_MOTION_DOT":2.153e-5,"MEAN_MOTION_DDOT":0},{"OBJECT_NAME":"STARLINK-3804","OBJECT_ID":"2022-041K","EPOCH":"2026-03-21T22:34:25.663584","MEAN_MOTION":15.0884333,"ECCENTRICITY":0.00014654,"INCLINATION":53.2185,"RA_OF_ASC_NODE":54.1504,"ARG_OF_PERICENTER":99.3426,"MEAN_ANOMALY":260.7732,"EPHEMERIS_TYPE":0,"CLASSIFICATION_TYPE":"U","NORAD_CAT_ID":52270,"ELEMENT_SET_NO":999,"REV_AT_EPOCH":21621,"BSTAR":4.8333446e-5,"MEAN_MOTION_DOT":4.81e-6,"MEAN_MOTION_DDOT":0}]
