STARLINK-3721           
1 52134U 22029AY  26080.79338343  .00002874  00000+0  19858-3 0  9990
2 52134  53.2197  14.7857 0002270  87.3020 272.8232 15.08848078222761
STARLINK-3729           
1 52135U 22029AZ  26080.11721757  .00000382  00000+0  42081-4 0  9999
2 52135  53.2183  17.8312 0001294  87.1006 273.0134 15.08837652222663
STARLINK-3720           
1 52136U 22029BA  26080.52105689  .00000883  00000+0  73578-4 0  9996
2 52136  53.2201  16.0076 0001399  97.1890 262.9262 15.08841715222722
STARLINK-3733           
1 52137U 22029BB  26080.84121418  .00001023  00000+0  82380-4 0  9998
2 52137  53.2182  14.5681 0001389  86.5007 273.6144 15.08840237222778
STARLINK-3723           
1 52138U 22029BC  26080.11994252  .00000326  00000+0  38570-4 0  9990
2 52138  53.2187  17.8068 0001407  86.0846 274.0307 15.08835380222663
STARLINK-3730           
1 52139U 22029BD  26080.56429465  .00001686  00000+0  12398-3 0  9998
2 52139  53.2192  25.8135 0001394  84.8342 275.2809 15.08847339222584
STARLINK-3682           
1 52140U 22029BE  26080.83752651  .00000851  00000+0  71500-4 0  9990
2 52140  53.2188  14.5830 0001260  87.7148 272.3988 15.08853038222776
STARLINK-3761           
1 52262U 22041B   26080.90010801  .00000106  00000+0  24791-4 0  9994
2 52262  53.2181  54.2570 0001716  83.0244 277.0943 15.08835362216202
STARLINK-3786           
1 52263U 22041C   26080.90378048  .00000070  00000+0  22522-4 0  9995
2 52263  53.2182  54.2903 0001759  86.3562 273.7631 15.08840049216205
STARLINK-3795           
1 52264U 22041D   26080.89642254  .00000466  00000+0  47363-4 0  9996
2 52264  53.2179  54.3216 0001400  82.5705 277.5446 15.08837468216207
STARLINK-3740           
1 52265U 22041E   26080.23036050  .00009490  00000+0  61429-3 0  9990
2 52265  53.2174  57.3128 0001728  89.4712 270.6478 15.08794884216107
STARLINK-3739           
1 52266U 22041F   26080.22665818  .00001157  00000+0  90815-4 0  9994
2 52266  53.2171  57.3284 0001320  89.5291 270.5852 15.08825716216103
STARLINK-3748           
1 52267U 22041G   26080.95162500  .00000466  00000+0  47396-4 0  9993
2 52267  53.2204  54.0845 0001518  98.3978 261.7186 15.08834455216211
STARLINK-3746           
1 52268U 22041H   26080.93320887 -.00000209  00000+0  49444-5 0  9999
2 52268  53.2177  54.0774 0001515  90.2934 269.8232 15.08843421216216
STARLINK-3791           
1 52269U 22041J   26080.94793347  .00002153  00000+0  15331-3 0  9991
2 52269  53.2185  54.0901 0001375  87.6332 272.4817 15.08844593216214
STARLINK-3804           
1 52270U 22041K   26080.94057481  .00000481  00000+0  48333-4 0  9996
2 52270  53.2185  54.1504 0001465  99.3426 260.7732 15.08843330216214
